STARLINK-31132          
1 58777U 24011N   26064.93098963  .00001559  00000+0  64755-4 0  9997
2 58777  53.1615 300.9997 0001215  69.4335 290.6796 15.30190839120981
STARLINK-31120          
1 58778U 24011P   26064.23762712 -.00000479  00000+0 -40639-5 0  9999
2 58778  53.1624  34.6980 0001365 106.3496 253.7655 15.30187584119581
STARLINK-31142          
1 58779U 24011Q   26064.28817053 -.00000867  00000+0 -17151-4 0  9997
2 58779  53.1626  34.3016 0001401  98.9482 261.1678 15.30185923119597
STARLINK-31099          
1 58781U 24011S   26064.61155794 -.00003457  00000+0 -10461-3 0  9998
2 58781  53.1609  32.7715 0000870 102.8927 257.2171 15.30213362119646
STARLINK-31047          
1 58783U 24011U   26064.18898266  .00000518  00000+0  29605-4 0  9994
2 58783  53.1625  19.0382 0001760  56.4235 303.6934 15.30208205119798
STARLINK-31039          
1 58784U 24011V   26064.60523515 -.00003422  00000+0 -10344-3 0  9992
2 58784  53.1622  32.7297 0001152 119.0707 241.0410 15.30205530119644
STARLINK-31034          
1 58785U 24011W   26064.91999402 -.00001494  00000+0 -38324-4 0  9995
2 58785  53.1606 288.8209 0001338 103.3435 256.7715 15.30196526121158
STARLINK-31024          
1 58786U 24011X   26064.28342332  .00001244  00000+0  54153-4 0  9999
2 58786  53.1616  32.1672 0001218 110.0162 250.0970 15.30173679119626
STARLINK-31189          
1 58787U 24012A   26064.39651353 -.00001324  00000+0 -38587-4 0  9993
2 58787  43.0027 189.1361 0001427 274.6601  85.4088 15.27579886120589
STARLINK-31185          
1 58788U 24012B   26064.38765484 -.00000346  00000+0 -30499-5 0  9992
2 58788  42.9974 189.9170 0001456 158.5219 201.5693 15.27572700120572
STARLINK-31166          
1 58789U 24012C   26064.60936893  .00000442  00000+0  25604-4 0  9998
2 58789  42.9979 188.1370 0001241 236.0788 123.9946 15.27572754120618
STARLINK-31187          
1 58790U 24012D   26064.71330076  .00000869  00000+0  41096-4 0  9999
2 58790  42.9990 188.0659 0001444 301.2164  58.8546 15.27582727120624
STARLINK-31162          
1 58791U 24012E   26064.41192603  .00001775  00000+0  74054-4 0  9996
2 58791  43.0007 189.2518 0001899 284.4620  75.6021 15.27569962120582
STARLINK-31184          
1 58793U 24012G   26064.73367818  .00004572  00000+0  17536-3 0  9994
2 58793  43.0044 187.3612 0002532 266.7873  93.2689 15.27622144120631
STARLINK-31192          
1 58794U 24012H   26064.31841298  .00003014  00000+0  11905-3 0  9992
2 58794  42.9998 190.2574 0000383 250.4662 109.6148 15.27560214120569
STARLINK-31161          
1 58795U 24012J   26064.73629011 -.00000628  00000+0 -13322-4 0  9992
2 58795  43.0010 187.3786 0001044 232.8235 127.2522 15.27573629120638
