[{"OBJECT_NAME":"STARLINK-31132","OBJECT_ID":"2024-011N","EPOCH":"2026-03-05T22:20:37.504032","MEAN_MOTION":15.30190839,"ECCENTRICITY":0.00012153,"INCLINATION":53.1615,"RA_OF_ASC_NODE":300.9997,"ARG_OF_PERICENTER":69.4335,"MEAN_ANOMALY":290.6796,"EPHEMERIS_TYPE":0,"CLASSIFICATION_TYPE":"U","NORAD_CAT_ID":58777,"ELEMENT_SET_NO":999,"REV_AT_EPOCH":12098,"BSTAR":6.475476e-5,"MEAN_MOTION_DOT":1.559e-5,"MEAN_MOTION_DDOT":0},{"OBJECT_NAME":"STARLINK-31120","OBJECT_ID":"2024-011P","EPOCH":"2026-03-05T05:42:10.983168","MEAN_MOTION":15.30187584,"ECCENTRICITY":0.0001365,"INCLINATION":53.1624,"RA_OF_ASC_NODE":34.698,"ARG_OF_PERICENTER":106.3496,"MEAN_ANOMALY":253.7655,"EPHEMERIS_TYPE":0,"CLASSIFICATION_TYPE":"U","NORAD_CAT_ID":58778,"ELEMENT_SET_NO":999,"REV_AT_EPOCH":11958,"BSTAR":-4.0639e-6,"MEAN_MOTION_DOT":-4.79e-6,"MEAN_MOTION_DDOT":0},{"OBJECT_NAME":"STARLINK-31142","OBJECT_ID":"2024-011Q","EPOCH":"2026-03-05T06:54:57.933792","MEAN_MOTION":15.30185923,"ECCENTRICITY":0.0001401,"INCLINATION":53.1626,"RA_OF_ASC_NODE":34.3016,"ARG_OF_PERICENTER":98.9482,"MEAN_ANOMALY":261.1678,"EPHEMERIS_TYPE":0,"CLASSIFICATION_TYPE":"U","NORAD_CAT_ID":58779,"ELEMENT_SET_NO":999,"REV_AT_EPOCH":11959,"BSTAR":-1.7151e-5,"MEAN_MOTION_DOT":-8.67e-6,"MEAN_MOTION_DDOT":0},{"OBJECT_NAME":"STARLINK-31099","OBJECT_ID":"2024-011S","EPOCH":"2026-03-05T14:40:38.606016","MEAN_MOTION":15.30213362,"ECCENTRICITY":8.7e-5,"INCLINATION":53.1609,"RA_OF_ASC_NODE":32.7715,"ARG_OF_PERICENTER":102.8927,"MEAN_ANOMALY":257.2171,"EPHEMERIS_TYPE":0,"CLASSIFICATION_TYPE":"U","NORAD_CAT_ID":58781,"ELEMENT_SET_NO":999,"REV_AT_EPOCH":11964,"BSTAR":-0.00010461,"MEAN_MOTION_DOT":-3.457e-5,"MEAN_MOTION_DDOT":0},{"OBJECT_NAME":"STARLINK-31047","OBJECT_ID":"2024-011U","EPOCH":"2026-03-05T04:32:08.101824","MEAN_MOTION":15.30208205,"ECCENTRICITY":0.000176,"INCLINATION":53.1625,"RA_OF_ASC_NODE":19.0382,"ARG_OF_PERICENTER":56.4235,"MEAN_ANOMALY":303.6934,"EPHEMERIS_TYPE":0,"CLASSIFICATION_TYPE":"U","NORAD_CAT_ID":58783,"ELEMENT_SET_NO":999,"REV_AT_EPOCH":11979,"BSTAR":2.9605e-5,"MEAN_MOTION_DOT":5.18e-6,"MEAN_MOTION_DDOT":0},{"OBJECT_NAME":"STARLINK-31039","OBJECT_ID":"2024-011V","EPOCH":"2026-03-05T14:31:32.316960","MEAN_MOTION":15.3020553,"ECCENTRICITY":0.0001152,"INCLINATION":53.1622,"RA_OF_ASC_NODE":32.7297,"ARG_OF_PERICENTER":119.0707,"MEAN_ANOMALY":241.041,"EPHEMERIS_TYPE":0,"CLASSIFICATION_TYPE":"U","NORAD_CAT_ID":58784,"ELEMENT_SET_NO":999,"REV_AT_EPOCH":11964,"BSTAR":-0.00010344,"MEAN_MOTION_DOT":-3.422e-5,"MEAN_MOTION_DDOT":0},{"OBJECT_NAME":"STARLINK-31034","OBJECT_ID":"2024-011W","EPOCH":"2026-03-05T22:04:47.483328","MEAN_MOTION":15.30196526,"ECCENTRICITY":0.00013381,"INCLINATION":53.1606,"RA_OF_ASC_NODE":288.8209,"ARG_OF_PERICENTER":103.3435,"MEAN_ANOMALY":256.7715,"EPHEMERIS_TYPE":0,"CLASSIFICATION_TYPE":"U","NORAD_CAT_ID":58785,"ELEMENT_SET_NO":999,"REV_AT_EPOCH":12115,"BSTAR":-3.8324139e-5,"MEAN_MOTION_DOT":-1.494e-5,"MEAN_MOTION_DDOT":0},{"OBJECT_NAME":"STARLINK-31024","OBJECT_ID":"2024-011X","EPOCH":"2026-03-05T06:48:07.774848","MEAN_MOTION":15.30173679,"ECCENTRICITY":0.0001218,"INCLINATION":53.1616,"RA_OF_ASC_NODE":32.1672,"ARG_OF_PERICENTER":110.0162,"MEAN_ANOMALY":250.097,"EPHEMERIS_TYPE":0,"CLASSIFICATION_TYPE":"U","NORAD_CAT_ID":58786,"ELEMENT_SET_NO":999,"REV_AT_EPOCH":11962,"BSTAR":5.4153e-5,"MEAN_MOTION_DOT":1.244e-5,"MEAN_MOTION_DDOT":0},{"OBJECT_NAME":"STARLINK-31189","OBJECT_ID":"2024-012A","EPOCH":"2026-03-05T09:30:58.768992","MEAN_MOTION":15.27579886,"ECCENTRICITY":0.0001427,"INCLINATION":43.0027,"RA_OF_ASC_NODE":189.1361,"ARG_OF_PERICENTER":274.6601,"MEAN_ANOMALY":85.4088,"EPHEMERIS_TYPE":0,"CLASSIFICATION_TYPE":"U","NORAD_CAT_ID":58787,"ELEMENT_SET_NO":999,"REV_AT_EPOCH":12058,"BSTAR":-3.8587e-5,"MEAN_MOTION_DOT":-1.324e-5,"MEAN_MOTION_DDOT":0},{"OBJECT_NAME":"STARLINK-31185","OBJECT_ID":"2024-012B","EPOCH":"2026-03-05T09:18:13.378176","MEAN_MOTION":15.275727,"ECCENTRICITY":0.0001456,"INCLINATION":42.9974,"RA_OF_ASC_NODE":189.917,"ARG_OF_PERICENTER":158.5219,"MEAN_ANOMALY":201.5693,"EPHEMERIS_TYPE":0,"CLASSIFICATION_TYPE":"U","NORAD_CAT_ID":58788,"ELEMENT_SET_NO":999,"REV_AT_EPOCH":12057,"BSTAR":-3.0499e-6,"MEAN_MOTION_DOT":-3.46e-6,"MEAN_MOTION_DDOT":0},{"OBJECT_NAME":"STARLINK-31166","OBJECT_ID":"2024-012C","EPOCH":"2026-03-05T14:37:29.475552","MEAN_MOTION":15.27572754,"ECCENTRICITY":0.0001241,"INCLINATION":42.9979,"RA_OF_ASC_NODE":188.137,"ARG_OF_PERICENTER":236.0788,"MEAN_ANOMALY":123.9946,"EPHEMERIS_TYPE":0,"CLASSIFICATION_TYPE":"U","NORAD_CAT_ID":58789,"ELEMENT_SET_NO":999,"REV_AT_EPOCH":12061,"BSTAR":2.5604e-5,"MEAN_MOTION_DOT":4.42e-6,"MEAN_MOTION_DDOT":0},{"OBJECT_NAME":"STARLINK-31187","OBJECT_ID":"2024-012D","EPOCH":"2026-03-05T17:07:09.185664","MEAN_MOTION":15.27582727,"ECCENTRICITY":0.00014449,"INCLINATION":42.999,"RA_OF_ASC_NODE":188.0659,"ARG_OF_PERICENTER":301.2164,"MEAN_ANOMALY":58.8546,"EPHEMERIS_TYPE":0,"CLASSIFICATION_TYPE":"U","NORAD_CAT_ID":58790,"ELEMENT_SET_NO":999,"REV_AT_EPOCH":12062,"BSTAR":4.1096227e-5,"MEAN_MOTION_DOT":8.69e-6,"MEAN_MOTION_DDOT":0},{"OBJECT_NAME":"STARLINK-31162","OBJECT_ID":"2024-012E","EPOCH":"2026-03-05T09:53:10.408992","MEAN_MOTION":15.27569962,"ECCENTRICITY":0.0001899,"INCLINATION":43.0007,"RA_OF_ASC_NODE":189.2518,"ARG_OF_PERICENTER":284.462,"MEAN_ANOMALY":75.6021,"EPHEMERIS_TYPE":0,"CLASSIFICATION_TYPE":"U","NORAD_CAT_ID":58791,"ELEMENT_SET_NO":999,"REV_AT_EPOCH":12058,"BSTAR":7.4054e-5,"MEAN_MOTION_DOT":1.775e-5,"MEAN_MOTION_DDOT":0},{"OBJECT_NAME":"STARLINK-31184","OBJECT_ID":"2024-012G","EPOCH":"2026-03-05T17:36:29.794752","MEAN_MOTION":15.27622144,"ECCENTRICITY":0.00025326,"INCLINATION":43.0044,"RA_OF_ASC_NODE":187.3612,"ARG_OF_PERICENTER":266.7873,"MEAN_ANOMALY":93.2689,"EPHEMERIS_TYPE":0,"CLASSIFICATION_TYPE":"U","NORAD_CAT_ID":58793,"ELEMENT_SET_NO":999,"REV_AT_EPOCH":12063,"BSTAR":0.0001753642,"MEAN_MOTION_DOT":4.572e-5,"MEAN_MOTION_DDOT":0},{"OBJECT_NAME":"STARLINK-31192","OBJECT_ID":"2024-012H","EPOCH":"2026-03-05T07:38:30.881472","MEAN_MOTION":15.27560214,"ECCENTRICITY":3.83e-5,"INCLINATION":42.9998,"RA_OF_ASC_NODE":190.2574,"ARG_OF_PERICENTER":250.4662,"MEAN_ANOMALY":109.6148,"EPHEMERIS_TYPE":0,"CLASSIFICATION_TYPE":"U","NORAD_CAT_ID":58794,"ELEMENT_SET_NO":999,"REV_AT_EPOCH":12056,"BSTAR":0.00011905,"MEAN_MOTION_DOT":3.014e-5,"MEAN_MOTION_DDOT":0},{"OBJECT_NAME":"STARLINK-31161","OBJECT_ID":"2024-012J","EPOCH":"2026-03-05T17:40:15.465504","MEAN_MOTION":15.27573629,"ECCENTRICITY":0.00010443,"INCLINATION":43.001,"RA_OF_ASC_NODE":187.3786,"ARG_OF_PERICENTER":232.8235,"MEAN_ANOMALY":127.2522,"EPHEMERIS_TYPE":0,"CLASSIFICATION_TYPE":"U","NORAD_CAT_ID":58795,"ELEMENT_SET_NO":999,"REV_AT_EPOCH":12063,"BSTAR":-1.3322206e-5,"MEAN_MOTION_DOT":-6.28e-6,"MEAN_MOTION_DDOT":0}]
